start=new Date('2023-03-24T00:00:00.000Z').valueOf();
sats=[{"DECAY_DATE":null,"BSTAR":"-0.00010270000000","OBJECT_NAME":"STARLINK-4353","PERIOD":"95.919","TIME_SYSTEM":"UTC","MEAN_MOTION":"15.01272885","CLASSIFICATION_TYPE":"U","REV_AT_EPOCH":"3701","SEMIMAJOR_AXIS":"6941.107","TLE_LINE1":"1 53214U 22084AB  23082.91494088 -.00001378  00000-0 -10270-3 0  9993","RCS_SIZE":"LARGE","EPHEMERIS_TYPE":"0","MEAN_MOTION_DOT":"-0.00001378","CENTER_NAME":"EARTH","ARG_OF_PERICENTER":"102.5385","ELEMENT_SET_NO":"999","GP_ID":"228740818","PERIAPSIS":"561.811","LAUNCH_DATE":"2022-07-22","NORAD_CAT_ID":"53214","RA_OF_ASC_NODE":"145.2115","FILE":"3868816","APOAPSIS":"564.133","OBJECT_ID":"2022-084AB","SITE":"AFWTR","INCLINATION":"97.6567","MEAN_MOTION_DDOT":"0.0000000000000","REF_FRAME":"TEME","EPOCH":"2023-03-23T21:57:30.892032","COUNTRY_CODE":"US","MEAN_ANOMALY":"257.6026","MEAN_ELEMENT_THEORY":"SGP4","TLE_LINE2":"2 53214  97.6567 145.2115 0001673 102.5385 257.6026 15.01272885 37015","OBJECT_TYPE":"PAYLOAD","ECCENTRICITY":"0.00016730"},{"REV_AT_EPOCH":"3750","SEMIMAJOR_AXIS":"6941.131","TLE_LINE1":"1 53215U 22084AC  23082.70572962  .00001862  00000-0  14947-3 0  9990","MEAN_MOTION_DOT":"0.00001862","EPHEMERIS_TYPE":"0","RCS_SIZE":"LARGE","CENTER_NAME":"EARTH","DECAY_DATE":null,"BSTAR":"0.00014947000000","OBJECT_NAME":"STARLINK-4335","TIME_SYSTEM":"UTC","PERIOD":"95.919","MEAN_MOTION":"15.01265121","CLASSIFICATION_TYPE":"U","REF_FRAME":"TEME","EPOCH":"2023-03-23T16:56:15.039168","MEAN_ANOMALY":"247.3061","MEAN_ELEMENT_THEORY":"SGP4","COUNTRY_CODE":"US","TLE_LINE2":"2 53215  97.6528 145.0039 0002025 112.8377 247.3061 15.01265121 37507","OBJECT_TYPE":"PAYLOAD","ECCENTRICITY":"0.00020250","GP_ID":"228740087","PERIAPSIS":"561.590","ARG_OF_PERICENTER":"112.8377","ELEMENT_SET_NO":"999","LAUNCH_DATE":"2022-07-22","RA_OF_ASC_NODE":"145.0039","NORAD_CAT_ID":"53215","INCLINATION":"97.6528","MEAN_MOTION_DDOT":"0.0000000000000","FILE":"3868816","OBJECT_ID":"2022-084AC","APOAPSIS":"564.402","SITE":"AFWTR"},{"TLE_LINE1":"1 53216U 22084AD  23082.71128425  .00001607  00000-0  12964-3 0  9997","SEMIMAJOR_AXIS":"6941.144","REV_AT_EPOCH":"3698","CENTER_NAME":"EARTH","MEAN_MOTION_DOT":"0.00001607","EPHEMERIS_TYPE":"0","RCS_SIZE":"LARGE","TIME_SYSTEM":"UTC","PERIOD":"95.919","DECAY_DATE":null,"BSTAR":"0.00012964000000","OBJECT_NAME":"STARLINK-4376","CLASSIFICATION_TYPE":"U","MEAN_MOTION":"15.01261018","MEAN_ELEMENT_THEORY":"SGP4","MEAN_ANOMALY":"237.4756","COUNTRY_CODE":"US","REF_FRAME":"TEME","EPOCH":"2023-03-23T17:04:14.959200","ECCENTRICITY":"0.00016030","TLE_LINE2":"2 53216  97.6555 145.0111 0001603 122.6623 237.4756 15.01261018 36986","OBJECT_TYPE":"PAYLOAD","LAUNCH_DATE":"2022-07-22","GP_ID":"228740337","PERIAPSIS":"561.896","ARG_OF_PERICENTER":"122.6623","ELEMENT_SET_NO":"999","INCLINATION":"97.6555","MEAN_MOTION_DDOT":"0.0000000000000","FILE":"3868816","OBJECT_ID":"2022-084AD","APOAPSIS":"564.121","SITE":"AFWTR","RA_OF_ASC_NODE":"145.0111","NORAD_CAT_ID":"53216"},{"OBJECT_TYPE":"PAYLOAD","TLE_LINE2":"2 53217  97.6553 145.0609 0001468 124.0860 236.0503 15.01259204 36995","ECCENTRICITY":"0.00014680","EPOCH":"2023-03-23T18:27:14.998176","REF_FRAME":"TEME","MEAN_ANOMALY":"236.0503","MEAN_ELEMENT_THEORY":"SGP4","COUNTRY_CODE":"US","NORAD_CAT_ID":"53217","RA_OF_ASC_NODE":"145.0609","MEAN_MOTION_DDOT":"0.0000000000000","INCLINATION":"97.6553","SITE":"AFWTR","OBJECT_ID":"2022-084AE","FILE":"3868816","APOAPSIS":"564.033","PERIAPSIS":"561.995","GP_ID":"228741089","ELEMENT_SET_NO":"999","ARG_OF_PERICENTER":"124.0860","LAUNCH_DATE":"2022-07-22","MEAN_MOTION_DOT":"0.00001128","EPHEMERIS_TYPE":"0","RCS_SIZE":"LARGE","CENTER_NAME":"EARTH","REV_AT_EPOCH":"3699","SEMIMAJOR_AXIS":"6941.149","TLE_LINE1":"1 53217U 22084AE  23082.76892359  .00001128  00000-0  92406-4 0  9995","MEAN_MOTION":"15.01259204","CLASSIFICATION_TYPE":"U","BSTAR":"0.00009240600000","OBJECT_NAME":"STARLINK-4379","DECAY_DATE":null,"TIME_SYSTEM":"UTC","PERIOD":"95.919"},{"CENTER_NAME":"EARTH","RCS_SIZE":"LARGE","EPHEMERIS_TYPE":"0","MEAN_MOTION_DOT":"0.00001509","SEMIMAJOR_AXIS":"6941.136","TLE_LINE1":"1 53218U 22084AF  23082.90938965  .00001509  00000-0  12204-3 0  9996","REV_AT_EPOCH":"3753","CLASSIFICATION_TYPE":"U","MEAN_MOTION":"15.01263497","PERIOD":"95.919","TIME_SYSTEM":"UTC","DECAY_DATE":null,"OBJECT_NAME":"STARLINK-4384","BSTAR":"0.00012204000000","ECCENTRICITY":"0.00019360","TLE_LINE2":"2 53218  97.6552 145.2075 0001936  99.3655 260.7788 15.01263497 37539","OBJECT_TYPE":"PAYLOAD","COUNTRY_CODE":"US","MEAN_ANOMALY":"260.7788","MEAN_ELEMENT_THEORY":"SGP4","REF_FRAME":"TEME","EPOCH":"2023-03-23T21:49:31.265760","FILE":"3868816","OBJECT_ID":"2022-084AF","APOAPSIS":"564.345","SITE":"AFWTR","INCLINATION":"97.6552","MEAN_MOTION_DDOT":"0.0000000000000","NORAD_CAT_ID":"53218","RA_OF_ASC_NODE":"145.2075","LAUNCH_DATE":"2022-07-22","ARG_OF_PERICENTER":"99.3655","ELEMENT_SET_NO":"999","GP_ID":"228741318","PERIAPSIS":"561.657"},{"REV_AT_EPOCH":"3701","SEMIMAJOR_AXIS":"6941.138","TLE_LINE1":"1 53219U 22084AG  23082.89828040  .00001516  00000-0  12261-3 0  9998","EPHEMERIS_TYPE":"0","MEAN_MOTION_DOT":"0.00001516","RCS_SIZE":"LARGE","CENTER_NAME":"EARTH","DECAY_DATE":null,"BSTAR":"0.00012261000000","OBJECT_NAME":"STARLINK-4373","TIME_SYSTEM":"UTC","PERIOD":"95.919","MEAN_MOTION":"15.01262802","CLASSIFICATION_TYPE":"U","REF_FRAME":"TEME","EPOCH":"2023-03-23T21:33:31.426560","MEAN_ELEMENT_THEORY":"SGP4","MEAN_ANOMALY":"253.6827","COUNTRY_CODE":"US","TLE_LINE2":"2 53219  97.6546 145.1877 0001559 106.4568 253.6827 15.01262802 37013","OBJECT_TYPE":"PAYLOAD","ECCENTRICITY":"0.00015590","GP_ID":"228739589","PERIAPSIS":"561.921","ARG_OF_PERICENTER":"106.4568","ELEMENT_SET_NO":"999","LAUNCH_DATE":"2022-07-22","NORAD_CAT_ID":"53219","RA_OF_ASC_NODE":"145.1877","INCLINATION":"97.6546","MEAN_MOTION_DDOT":"0.0000000000000","APOAPSIS":"564.085","FILE":"3868816","OBJECT_ID":"2022-084AG","SITE":"AFWTR"},{"CLASSIFICATION_TYPE":"U","MEAN_MOTION":"15.01261007","TIME_SYSTEM":"UTC","PERIOD":"95.919","OBJECT_NAME":"STARLINK-4363","BSTAR":"0.00015279000000","DECAY_DATE":null,"CENTER_NAME":"EARTH","MEAN_MOTION_DOT":"0.00001904","EPHEMERIS_TYPE":"0","RCS_SIZE":"LARGE","TLE_LINE1":"1 53220U 22084AH  23082.90383591  .00001904  00000-0  15279-3 0  9992","SEMIMAJOR_AXIS":"6941.144","REV_AT_EPOCH":"3753","MEAN_MOTION_DDOT":"0.0000000000000","INCLINATION":"97.6533","SITE":"AFWTR","FILE":"3868816","APOAPSIS":"564.321","OBJECT_ID":"2022-084AH","NORAD_CAT_ID":"53220","RA_OF_ASC_NODE":"145.1962","LAUNCH_DATE":"2022-07-22","PERIAPSIS":"561.697","GP_ID":"228739838","ELEMENT_SET_NO":"999","ARG_OF_PERICENTER":"99.3144","ECCENTRICITY":"0.00018900","OBJECT_TYPE":"PAYLOAD","TLE_LINE2":"2 53220  97.6533 145.1962 0001890  99.3144 260.8294 15.01261007 37535","MEAN_ELEMENT_THEORY":"SGP4","MEAN_ANOMALY":"260.8294","COUNTRY_CODE":"US","EPOCH":"2023-03-23T21:41:31.422624","REF_FRAME":"TEME"},{"RA_OF_ASC_NODE":"145.1848","NORAD_CAT_ID":"53221","OBJECT_ID":"2022-084AJ","FILE":"3868816","APOAPSIS":"563.940","SITE":"AFWTR","INCLINATION":"97.6555","MEAN_MOTION_DDOT":"0.0000000000000","ARG_OF_PERICENTER":"104.8305","ELEMENT_SET_NO":"999","GP_ID":"228740590","PERIAPSIS":"562.088","LAUNCH_DATE":"2022-07-22","TLE_LINE2":"2 53221  97.6555 145.1848 0001334 104.8305 255.3067 15.01259327 37019","OBJECT_TYPE":"PAYLOAD","ECCENTRICITY":"0.00013340","REF_FRAME":"TEME","EPOCH":"2023-03-23T21:30:51.508800","COUNTRY_CODE":"US","MEAN_ANOMALY":"255.3067","MEAN_ELEMENT_THEORY":"SGP4","MEAN_MOTION":"15.01259327","CLASSIFICATION_TYPE":"U","DECAY_DATE":null,"BSTAR":"0.00014900000000","OBJECT_NAME":"STARLINK-4377","PERIOD":"95.919","TIME_SYSTEM":"UTC","RCS_SIZE":"LARGE","MEAN_MOTION_DOT":"0.00001855","EPHEMERIS_TYPE":"0","CENTER_NAME":"EARTH","REV_AT_EPOCH":"3701","TLE_LINE1":"1 53221U 22084AJ  23082.89642950  .00001855  00000-0  14900-3 0  9993","SEMIMAJOR_AXIS":"6941.149"},{"REV_AT_EPOCH":"3701","SEMIMAJOR_AXIS":"6941.132","TLE_LINE1":"1 53222U 22084AK  23082.90198065  .00001399  00000-0  11344-3 0  9991","EPHEMERIS_TYPE":"0","MEAN_MOTION_DOT":"0.00001399","RCS_SIZE":"LARGE","CENTER_NAME":"EARTH","BSTAR":"0.00011344000000","OBJECT_NAME":"STARLINK-4381","DECAY_DATE":null,"TIME_SYSTEM":"UTC","PERIOD":"95.919","MEAN_MOTION":"15.01264914","CLASSIFICATION_TYPE":"U","EPOCH":"2023-03-23T21:38:51.128160","REF_FRAME":"TEME","MEAN_ELEMENT_THEORY":"SGP4","MEAN_ANOMALY":"250.2029","COUNTRY_CODE":"US","OBJECT_TYPE":"PAYLOAD","TLE_LINE2":"2 53222  97.6548 145.1935 0001597 109.9368 250.2029 15.01264914 37015","ECCENTRICITY":"0.00015970","PERIAPSIS":"561.888","GP_ID":"228740819","ELEMENT_SET_NO":"999","ARG_OF_PERICENTER":"109.9368","LAUNCH_DATE":"2022-07-22","NORAD_CAT_ID":"53222","RA_OF_ASC_NODE":"145.1935","MEAN_MOTION_DDOT":"0.0000000000000","INCLINATION":"97.6548","SITE":"AFWTR","OBJECT_ID":"2022-084AK","FILE":"3868816","APOAPSIS":"564.105"},{"EPOCH":"2023-03-23T21:28:11.494272","REF_FRAME":"TEME","MEAN_ANOMALY":"252.1074","MEAN_ELEMENT_THEORY":"SGP4","COUNTRY_CODE":"US","OBJECT_TYPE":"PAYLOAD","TLE_LINE2":"2 53223  97.6550 145.1814 0001522 108.0316 252.1074 15.01261457 37016","ECCENTRICITY":"0.00015220","PERIAPSIS":"561.951","GP_ID":"228740088","ELEMENT_SET_NO":"999","ARG_OF_PERICENTER":"108.0316","LAUNCH_DATE":"2022-07-22","NORAD_CAT_ID":"53223","RA_OF_ASC_NODE":"145.1814","MEAN_MOTION_DDOT":"0.0000000000000","INCLINATION":"97.6550","SITE":"AFWTR","OBJECT_ID":"2022-084AL","FILE":"3868816","APOAPSIS":"564.064","REV_AT_EPOCH":"3701","TLE_LINE1":"1 53223U 22084AL  23082.89457748  .00001206  00000-0  98459-4 0  9996","SEMIMAJOR_AXIS":"6941.142","MEAN_MOTION_DOT":"0.00001206","EPHEMERIS_TYPE":"0","RCS_SIZE":"LARGE","CENTER_NAME":"EARTH","BSTAR":"0.00009845900000","OBJECT_NAME":"STARLINK-4354","DECAY_DATE":null,"TIME_SYSTEM":"UTC","PERIOD":"95.919","MEAN_MOTION":"15.01261457","CLASSIFICATION_TYPE":"U"}];
